SILVERSAT               
1 66909U 98067XV  26038.73712104  .00146297  00000+0  15693-2 0  9998
2 66909  51.6271 217.1469 0002576 230.2251 129.8516 15.62808493 10491
ISS OBJECT XW           
1 66910U 98067XW  26038.75165351  .00124600  00000+0  14148-2 0  9996
2 66910  51.6262 217.2388 0000983 258.5946 101.4937 15.61429611 10491
ISS OBJECT XX           
1 66911U 98067XX  26038.70806818  .00165665  00000+0  16909-2 0  9995
2 66911  51.6247 216.9470 0002517 264.5889  95.4819 15.64004478 10484
ISS OBJECT XY           
1 66912U 98067XY  26038.74848448  .00088919  00000+0  11315-2 0  9997
2 66912  51.6283 217.9746 0001112 162.5092 197.5939 15.58603065 10471
ISS OBJECT XZ           
1 67683U 98067XZ  26038.82319277  .00048458  00000+0  86761-3 0  9997
2 67683  51.6309 219.9700 0011067  90.4096 269.8161 15.49417816   152
ISS OBJECT YA           
1 67684U 98067YA  26038.82244664  .00083856  00000+0  14666-2 0  9990
2 67684  51.6312 219.9664 0013094  86.3461 273.9025 15.49816744   156
LEOPARD                 
1 67685U 98067YB  26038.82301323  .00051701  00000+0  92117-3 0  9999
2 67685  51.6309 219.9689 0013032  85.7167 274.5311 15.49502332   158
ISS OBJECT YC           
1 67686U 98067YC  26038.82292362  .00063280  00000+0  11235-2 0  9998
2 67686  51.6317 219.9690 0007788  63.8059 296.3730 15.49573537   150
CORAL                   
1 67687U 98067YD  26038.82308833  .00050114  00000+0  89606-3 0  9990
2 67687  51.6314 219.9703 0007900  65.1100 295.0709 15.49473358    74
GXIBA-1                 
1 67688U 98067YE  26038.82293276  .00053906  00000+0  96013-3 0  9997
2 67688  51.6319 219.9696 0007811  64.9046 295.2753 15.49552993    72
