CCSDS_OMM_VERS = 2.0
CREATION_DATE  = 
ORIGINATOR     = 

OBJECT_NAME    = SILVERSAT
OBJECT_ID      = 1998-067XV
CENTER_NAME    = EARTH
REF_FRAME      = TEME
TIME_SYSTEM    = UTC
MEAN_ELEMENT_THEORY = SGP/SGP4

EPOCH          = 2026-02-07T17:41:27.257856
MEAN_MOTION    = 15.62808493
ECCENTRICITY   = .0002576
INCLINATION    = 51.6271
RA_OF_ASC_NODE = 217.1469
ARG_OF_PERICENTER = 230.2251
MEAN_ANOMALY   = 129.8516

EPHEMERIS_TYPE = 0
CLASSIFICATION_TYPE = U
NORAD_CAT_ID   = 66909
ELEMENT_SET_NO = 999
REV_AT_EPOCH   = 1049
BSTAR          = .15693E-2
MEAN_MOTION_DOT = .146297E-2
MEAN_MOTION_DDOT = 0

CCSDS_OMM_VERS = 2.0
CREATION_DATE  = 
ORIGINATOR     = 

OBJECT_NAME    = ISS OBJECT XW
OBJECT_ID      = 1998-067XW
CENTER_NAME    = EARTH
REF_FRAME      = TEME
TIME_SYSTEM    = UTC
MEAN_ELEMENT_THEORY = SGP/SGP4

EPOCH          = 2026-02-07T18:02:22.863264
MEAN_MOTION    = 15.61429611
ECCENTRICITY   = .0000983
INCLINATION    = 51.6262
RA_OF_ASC_NODE = 217.2388
ARG_OF_PERICENTER = 258.5946
MEAN_ANOMALY   = 101.4937

EPHEMERIS_TYPE = 0
CLASSIFICATION_TYPE = U
NORAD_CAT_ID   = 66910
ELEMENT_SET_NO = 999
REV_AT_EPOCH   = 1049
BSTAR          = .14148E-2
MEAN_MOTION_DOT = .1246E-2
MEAN_MOTION_DDOT = 0

CCSDS_OMM_VERS = 2.0
CREATION_DATE  = 
ORIGINATOR     = 

OBJECT_NAME    = ISS OBJECT XX
OBJECT_ID      = 1998-067XX
CENTER_NAME    = EARTH
REF_FRAME      = TEME
TIME_SYSTEM    = UTC
MEAN_ELEMENT_THEORY = SGP/SGP4

EPOCH          = 2026-02-07T16:59:37.090752
MEAN_MOTION    = 15.64004478
ECCENTRICITY   = .0002517
INCLINATION    = 51.6247
RA_OF_ASC_NODE = 216.9470
ARG_OF_PERICENTER = 264.5889
MEAN_ANOMALY   = 95.4819

EPHEMERIS_TYPE = 0
CLASSIFICATION_TYPE = U
NORAD_CAT_ID   = 66911
ELEMENT_SET_NO = 999
REV_AT_EPOCH   = 1048
BSTAR          = .16909E-2
MEAN_MOTION_DOT = .165665E-2
MEAN_MOTION_DDOT = 0

CCSDS_OMM_VERS = 2.0
CREATION_DATE  = 
ORIGINATOR     = 

OBJECT_NAME    = ISS OBJECT XY
OBJECT_ID      = 1998-067XY
CENTER_NAME    = EARTH
REF_FRAME      = TEME
TIME_SYSTEM    = UTC
MEAN_ELEMENT_THEORY = SGP/SGP4

EPOCH          = 2026-02-07T17:57:49.059072
MEAN_MOTION    = 15.58603065
ECCENTRICITY   = .0001112
INCLINATION    = 51.6283
RA_OF_ASC_NODE = 217.9746
ARG_OF_PERICENTER = 162.5092
MEAN_ANOMALY   = 197.5939

EPHEMERIS_TYPE = 0
CLASSIFICATION_TYPE = U
NORAD_CAT_ID   = 66912
ELEMENT_SET_NO = 999
REV_AT_EPOCH   = 1047
BSTAR          = .11315E-2
MEAN_MOTION_DOT = .88919E-3
MEAN_MOTION_DDOT = 0

CCSDS_OMM_VERS = 2.0
CREATION_DATE  = 
ORIGINATOR     = 

OBJECT_NAME    = ISS OBJECT XZ
OBJECT_ID      = 1998-067XZ
CENTER_NAME    = EARTH
REF_FRAME      = TEME
TIME_SYSTEM    = UTC
MEAN_ELEMENT_THEORY = SGP/SGP4

EPOCH          = 2026-02-07T19:45:23.855328
MEAN_MOTION    = 15.49417816
ECCENTRICITY   = .0011067
INCLINATION    = 51.6309
RA_OF_ASC_NODE = 219.9700
ARG_OF_PERICENTER = 90.4096
MEAN_ANOMALY   = 269.8161

EPHEMERIS_TYPE = 0
CLASSIFICATION_TYPE = U
NORAD_CAT_ID   = 67683
ELEMENT_SET_NO = 999
REV_AT_EPOCH   = 15
BSTAR          = .86761E-3
MEAN_MOTION_DOT = .48458E-3
MEAN_MOTION_DDOT = 0

CCSDS_OMM_VERS = 2.0
CREATION_DATE  = 
ORIGINATOR     = 

OBJECT_NAME    = ISS OBJECT YA
OBJECT_ID      = 1998-067YA
CENTER_NAME    = EARTH
REF_FRAME      = TEME
TIME_SYSTEM    = UTC
MEAN_ELEMENT_THEORY = SGP/SGP4

EPOCH          = 2026-02-07T19:44:19.389696
MEAN_MOTION    = 15.49816744
ECCENTRICITY   = .0013094
INCLINATION    = 51.6312
RA_OF_ASC_NODE = 219.9664
ARG_OF_PERICENTER = 86.3461
MEAN_ANOMALY   = 273.9025

EPHEMERIS_TYPE = 0
CLASSIFICATION_TYPE = U
NORAD_CAT_ID   = 67684
ELEMENT_SET_NO = 999
REV_AT_EPOCH   = 15
BSTAR          = .14666E-2
MEAN_MOTION_DOT = .83856E-3
MEAN_MOTION_DDOT = 0

CCSDS_OMM_VERS = 2.0
CREATION_DATE  = 
ORIGINATOR     = 

OBJECT_NAME    = LEOPARD
OBJECT_ID      = 1998-067YB
CENTER_NAME    = EARTH
REF_FRAME      = TEME
TIME_SYSTEM    = UTC
MEAN_ELEMENT_THEORY = SGP/SGP4

EPOCH          = 2026-02-07T19:45:08.343072
MEAN_MOTION    = 15.49502332
ECCENTRICITY   = .0013032
INCLINATION    = 51.6309
RA_OF_ASC_NODE = 219.9689
ARG_OF_PERICENTER = 85.7167
MEAN_ANOMALY   = 274.5311

EPHEMERIS_TYPE = 0
CLASSIFICATION_TYPE = U
NORAD_CAT_ID   = 67685
ELEMENT_SET_NO = 999
REV_AT_EPOCH   = 15
BSTAR          = .92117E-3
MEAN_MOTION_DOT = .51701E-3
MEAN_MOTION_DDOT = 0

CCSDS_OMM_VERS = 2.0
CREATION_DATE  = 
ORIGINATOR     = 

OBJECT_NAME    = ISS OBJECT YC
OBJECT_ID      = 1998-067YC
CENTER_NAME    = EARTH
REF_FRAME      = TEME
TIME_SYSTEM    = UTC
MEAN_ELEMENT_THEORY = SGP/SGP4

EPOCH          = 2026-02-07T19:45:00.600768
MEAN_MOTION    = 15.49573537
ECCENTRICITY   = .0007788
INCLINATION    = 51.6317
RA_OF_ASC_NODE = 219.9690
ARG_OF_PERICENTER = 63.8059
MEAN_ANOMALY   = 296.3730

EPHEMERIS_TYPE = 0
CLASSIFICATION_TYPE = U
NORAD_CAT_ID   = 67686
ELEMENT_SET_NO = 999
REV_AT_EPOCH   = 15
BSTAR          = .11235E-2
MEAN_MOTION_DOT = .6328E-3
MEAN_MOTION_DDOT = 0

CCSDS_OMM_VERS = 2.0
CREATION_DATE  = 
ORIGINATOR     = 

OBJECT_NAME    = CORAL
OBJECT_ID      = 1998-067YD
CENTER_NAME    = EARTH
REF_FRAME      = TEME
TIME_SYSTEM    = UTC
MEAN_ELEMENT_THEORY = SGP/SGP4

EPOCH          = 2026-02-07T19:45:14.831712
MEAN_MOTION    = 15.49473358
ECCENTRICITY   = .00079
INCLINATION    = 51.6314
RA_OF_ASC_NODE = 219.9703
ARG_OF_PERICENTER = 65.1100
MEAN_ANOMALY   = 295.0709

EPHEMERIS_TYPE = 0
CLASSIFICATION_TYPE = U
NORAD_CAT_ID   = 67687
ELEMENT_SET_NO = 999
REV_AT_EPOCH   = 7
BSTAR          = .89606E-3
MEAN_MOTION_DOT = .50114E-3
MEAN_MOTION_DDOT = 0

CCSDS_OMM_VERS = 2.0
CREATION_DATE  = 
ORIGINATOR     = 

OBJECT_NAME    = GXIBA-1
OBJECT_ID      = 1998-067YE
CENTER_NAME    = EARTH
REF_FRAME      = TEME
TIME_SYSTEM    = UTC
MEAN_ELEMENT_THEORY = SGP/SGP4

EPOCH          = 2026-02-07T19:45:01.390464
MEAN_MOTION    = 15.49552993
ECCENTRICITY   = .0007811
INCLINATION    = 51.6319
RA_OF_ASC_NODE = 219.9696
ARG_OF_PERICENTER = 64.9046
MEAN_ANOMALY   = 295.2753

EPHEMERIS_TYPE = 0
CLASSIFICATION_TYPE = U
NORAD_CAT_ID   = 67688
ELEMENT_SET_NO = 999
REV_AT_EPOCH   = 7
BSTAR          = .96013E-3
MEAN_MOTION_DOT = .53906E-3
MEAN_MOTION_DDOT = 0

